STARLINK-5556           
1 55385U 23013BG  26068.07850645 -.00002704  00000+0 -18517-3 0  9991
2 55385  43.0028 316.1155 0000495 314.7467  45.3335 15.02534781171476
2024-205C               
1 61896U 24205C   26067.20867002  .00012247  00000+0  67177-3 0  9995
2 61896  97.4204 141.0161 0044383 341.9375  18.0277 15.13448144 72971
