[{"OBJECT_NAME":"STARLINK-5556","OBJECT_ID":"2023-013BG","EPOCH":"2026-03-09T01:53:02.957280","MEAN_MOTION":15.02534781,"ECCENTRICITY":4.955e-5,"INCLINATION":43.0028,"RA_OF_ASC_NODE":316.1155,"ARG_OF_PERICENTER":314.7467,"MEAN_ANOMALY":45.3335,"EPHEMERIS_TYPE":0,"CLASSIFICATION_TYPE":"U","NORAD_CAT_ID":55385,"ELEMENT_SET_NO":999,"REV_AT_EPOCH":17147,"BSTAR":-0.0001851701,"MEAN_MOTION_DOT":-2.704e-5,"MEAN_MOTION_DDOT":0},{"OBJECT_NAME":"OBJECT C","OBJECT_ID":"2024-205C","EPOCH":"2026-03-08T05:00:29.089728","MEAN_MOTION":15.13448144,"ECCENTRICITY":0.00443832,"INCLINATION":97.4204,"RA_OF_ASC_NODE":141.0161,"ARG_OF_PERICENTER":341.9375,"MEAN_ANOMALY":18.0277,"EPHEMERIS_TYPE":0,"CLASSIFICATION_TYPE":"U","NORAD_CAT_ID":61896,"ELEMENT_SET_NO":999,"REV_AT_EPOCH":7297,"BSTAR":0.00067176952,"MEAN_MOTION_DOT":0.00012247,"MEAN_MOTION_DDOT":0}]
